{
  "type": "FeatureCollection",
  "features": [
    {
      "type": "Feature",
      "properties": {
        "norad_id": 66401,
        "name": "STARLINK-35668",
        "group": "last-30-days",
        "lat": 52.66920386105889,
        "lon": 0.06847771944264996,
        "alt_km": 439.08971826214565,
        "timestamp": "2025-12-09T05:43:19.507951+00:00",
        "meta_object_name": "STARLINK-35668",
        "meta_object_id": "2025-257X",
        "meta_epoch": "2025-12-08T20:00:01.999008",
        "meta_mean_motion": 15.39561995,
        "meta_eccentricity": 0.0001645,
        "meta_inclination": 53.1598,
        "meta_ra_of_asc_node": 282.5406,
        "meta_arg_of_pericenter": 98.8188,
        "meta_mean_anomaly": 258.473,
        "meta_ephemeris_type": 0,
        "meta_classification_type": "U",
        "meta_norad_cat_id": 66401,
        "meta_element_set_no": 999,
        "meta_rev_at_epoch": 586,
        "meta_bstar": 0.001699,
        "meta_mean_motion_dot": 0.00068038,
        "meta_mean_motion_ddot": 0,
        "tle_line1": "1 66401U 25257X   25342.83335647  .00068038  00000+0  16990-2 0  9994",
        "tle_line2": "2 66401  53.1598 282.5406 0001645  98.8188 258.4730 15.39561995  5866"
      },
      "geometry": {
        "type": "Point",
        "coordinates": [
          0.06847771944264996,
          52.66920386105889
        ]
      }
    },
    {
      "type": "Feature",
      "properties": {
        "norad_id": 66402,
        "name": "STARLINK-35644",
        "group": "last-30-days",
        "lat": 42.630867511679966,
        "lon": -35.67584299986518,
        "alt_km": 440.93867436799246,
        "timestamp": "2025-12-09T05:43:19.507962+00:00",
        "meta_object_name": "STARLINK-35644",
        "meta_object_id": "2025-257Y",
        "meta_epoch": "2025-12-08T20:00:01.999008",
        "meta_mean_motion": 15.39618801,
        "meta_eccentricity": 0.0001413,
        "meta_inclination": 53.1601,
        "meta_ra_of_asc_node": 282.5919,
        "meta_arg_of_pericenter": 99.4129,
        "meta_mean_anomaly": 232.1066,
        "meta_ephemeris_type": 0,
        "meta_classification_type": "U",
        "meta_norad_cat_id": 66402,
        "meta_element_set_no": 999,
        "meta_rev_at_epoch": 586,
        "meta_bstar": -0.00053764,
        "meta_mean_motion_dot": -0.00021842,
        "meta_mean_motion_ddot": 0,
        "tle_line1": "1 66402U 25257Y   25342.83335647 -.00021842  00000+0 -53764-3 0  9990",
        "tle_line2": "2 66402  53.1601 282.5919 0001413  99.4129 232.1066 15.39618801  5866"
      },
      "geometry": {
        "type": "Point",
        "coordinates": [
          -35.67584299986518,
          42.630867511679966
        ]
      }
    },
    {
      "type": "Feature",
      "properties": {
        "norad_id": 66403,
        "name": "STARLINK-35602",
        "group": "last-30-days",
        "lat": 49.68966922979811,
        "lon": 38.487716001770956,
        "alt_km": 439.19036259463974,
        "timestamp": "2025-12-09T05:43:19.507973+00:00",
        "meta_object_name": "STARLINK-35602",
        "meta_object_id": "2025-257Z",
        "meta_epoch": "2025-12-08T20:00:01.999008",
        "meta_mean_motion": 15.41549048,
        "meta_eccentricity": 0.000129,
        "meta_inclination": 53.1596,
        "meta_ra_of_asc_node": 282.4948,
        "meta_arg_of_pericenter": 94.4322,
        "meta_mean_anomaly": 285.2974,
        "meta_ephemeris_type": 0,
        "meta_classification_type": "U",
        "meta_norad_cat_id": 66403,
        "meta_element_set_no": 999,
        "meta_rev_at_epoch": 586,
        "meta_bstar": -0.054288,
        "meta_mean_motion_dot": -0.02055616,
        "meta_mean_motion_ddot": 0,
        "tle_line1": "1 66403U 25257Z   25342.83335647 -.02055616  00000+0 -54288-1 0  9999",
        "tle_line2": "2 66403  53.1596 282.4948 0001290  94.4322 285.2974 15.41549048  5860"
      },
      "geometry": {
        "type": "Point",
        "coordinates": [
          38.487716001770956,
          49.68966922979811
        ]
      }
    },
    {
      "type": "Feature",
      "properties": {
        "norad_id": 66404,
        "name": "STARLINK-35691",
        "group": "last-30-days",
        "lat": 48.973916683158215,
        "lon": 41.07406199712449,
        "alt_km": 439.3766487797102,
        "timestamp": "2025-12-09T05:43:19.507983+00:00",
        "meta_object_name": "STARLINK-35691",
        "meta_object_id": "2025-257AA",
        "meta_epoch": "2025-12-08T20:00:01.999008",
        "meta_mean_motion": 15.41534739,
        "meta_eccentricity": 0.0001192,
        "meta_inclination": 53.1596,
        "meta_ra_of_asc_node": 282.4907,
        "meta_arg_of_pericenter": 100.6321,
        "meta_mean_anomaly": 280.9463,
        "meta_ephemeris_type": 0,
        "meta_classification_type": "U",
        "meta_norad_cat_id": 66404,
        "meta_element_set_no": 999,
        "meta_rev_at_epoch": 586,
        "meta_bstar": -0.054165,
        "meta_mean_motion_dot": -0.02050561,
        "meta_mean_motion_ddot": 0,
        "tle_line1": "1 66404U 25257AA  25342.83335647 -.02050561  00000+0 -54165-1 0  9998",
        "tle_line2": "2 66404  53.1596 282.4907 0001192 100.6321 280.9463 15.41534739  5862"
      },
      "geometry": {
        "type": "Point",
        "coordinates": [
          41.07406199712449,
          48.973916683158215
        ]
      }
    },
    {
      "type": "Feature",
      "properties": {
        "norad_id": 66405,
        "name": "STARLINK-35683",
        "group": "last-30-days",
        "lat": 36.95946049549393,
        "lon": 66.19249237909237,
        "alt_km": 432.27690262251053,
        "timestamp": "2025-12-09T05:43:19.507994+00:00",
        "meta_object_name": "STARLINK-35683",
        "meta_object_id": "2025-257AB",
        "meta_epoch": "2025-12-08T20:00:01.999008",
        "meta_mean_motion": 15.44596643,
        "meta_eccentricity": 0.0001143,
        "meta_inclination": 53.159,
        "meta_ra_of_asc_node": 282.4562,
        "meta_arg_of_pericenter": 96.8529,
        "meta_mean_anomaly": 302.0279,
        "meta_ephemeris_type": 0,
        "meta_classification_type": "U",
        "meta_norad_cat_id": 66405,
        "meta_element_set_no": 999,
        "meta_rev_at_epoch": 571,
        "meta_bstar": -0.048327,
        "meta_mean_motion_dot": -0.02032504,
        "meta_mean_motion_ddot": 0,
        "tle_line1": "1 66405U 25257AB  25342.83335647 -.02032504  00000+0 -48327-1 0  9999",
        "tle_line2": "2 66405  53.1590 282.4562 0001143  96.8529 302.0279 15.44596643  5716"
      },
      "geometry": {
        "type": "Point",
        "coordinates": [
          66.19249237909237,
          36.95946049549393
        ]
      }
    },
    {
      "type": "Feature",
      "properties": {
        "norad_id": 66406,
        "name": "STARLINK-34840",
        "group": "last-30-days",
        "lat": 20.236055957438893,
        "lon": 84.4441896120927,
        "alt_km": 415.8792798772147,
        "timestamp": "2025-12-09T05:43:19.508005+00:00",
        "meta_object_name": "STARLINK-34840",
        "meta_object_id": "2025-257AC",
        "meta_epoch": "2025-12-08T13:34:41.658816",
        "meta_mean_motion": 15.49353814,
        "meta_eccentricity": 4.215e-05,
        "meta_inclination": 53.1588,
        "meta_ra_of_asc_node": 283.707,
        "meta_arg_of_pericenter": 123.5038,
        "meta_mean_anomaly": 236.6011,
        "meta_ephemeris_type": 0,
        "meta_classification_type": "U",
        "meta_norad_cat_id": 66406,
        "meta_element_set_no": 999,
        "meta_rev_at_epoch": 567,
        "meta_bstar": 0.0019441938,
        "meta_mean_motion_dot": 0.00109379,
        "meta_mean_motion_ddot": 0,
        "tle_line1": "1 66406U 25257AC  25342.56575994  .00109379  00000+0  19442-2 0  9999",
        "tle_line2": "2 66406  53.1588 283.7070 0000421 123.5038 236.6011 15.49353814  5670"
      },
      "geometry": {
        "type": "Point",
        "coordinates": [
          84.4441896120927,
          20.236055957438893
        ]
      }
    },
    {
      "type": "Feature",
      "properties": {
        "norad_id": 66407,
        "name": "STARLINK-35686",
        "group": "last-30-days",
        "lat": 26.922903240091063,
        "lon": 78.12678301713738,
        "alt_km": 425.16908243461967,
        "timestamp": "2025-12-09T05:43:19.508016+00:00",
        "meta_object_name": "STARLINK-35686",
        "meta_object_id": "2025-257AD",
        "meta_epoch": "2025-12-08T16:00:03.000096",
        "meta_mean_motion": 15.48445372,
        "meta_eccentricity": 0.000124,
        "meta_inclination": 53.1591,
        "meta_ra_of_asc_node": 283.232,
        "meta_arg_of_pericenter": 85.7776,
        "meta_mean_anomaly": 113.5078,
        "meta_ephemeris_type": 0,
        "meta_classification_type": "U",
        "meta_norad_cat_id": 66407,
        "meta_element_set_no": 999,
        "meta_rev_at_epoch": 584,
        "meta_bstar": -0.042879,
        "meta_mean_motion_dot": -0.02058872,
        "meta_mean_motion_ddot": 0,
        "tle_line1": "1 66407U 25257AD  25342.66670139 -.02058872  00000+0 -42879-1 0  9992",
        "tle_line2": "2 66407  53.1591 283.2320 0001240  85.7776 113.5078 15.48445372  5841"
      },
      "geometry": {
        "type": "Point",
        "coordinates": [
          78.12678301713738,
          26.922903240091063
        ]
      }
    }
  ]
}